STARLINK-32233          
1 60434U 24144K   25336.19881922  .00000589  00000+0  32030-4 0  9994
2 60434  53.1621 309.9113 0001535  90.0354 270.0823 15.30195838 74385
STARLINK-32222          
1 60435U 24144L   25336.20198550 -.00000052  00000+0  10363-4 0  9996
2 60435  53.1633 309.9330 0001356  92.1571 267.9585 15.30205970 74384
STARLINK-32229          
1 60436U 24144M   25336.19565745 -.00002494  00000+0 -72067-4 0  9991
2 60436  53.1613 309.8935 0001799  87.5873 272.5334 15.30203334 74383
STARLINK-32241          
1 60437U 24144N   25336.19459498  .00002915  00000+0  11058-3 0  9997
2 60437  53.1622 309.8875 0001459  95.4549 264.6618 15.30180748 74388
STARLINK-32240          
1 60438U 24144P   25336.25780903  .00001431  00000+0  60435-4 0  9999
2 60438  53.1615 309.5721 0001442  85.7929 274.3236 15.30192812 74439
STARLINK-32231          
1 60439U 24144Q   25336.25041850  .00000124  00000+0  16331-4 0  9995
2 60439  53.1620 309.5210 0001310  94.0692 266.0458 15.30192264 73493
STARLINK-32195          
1 60440U 24144R   25336.25463865  .00001417  00000+0  59990-4 0  9995
2 60440  53.1611 309.5501 0001617  95.3757 264.7428 15.30184538 74391
STARLINK-32177          
1 60441U 24144S   25336.24726430  .00006830  00000+0  24277-3 0  9998
2 60441  53.1613 309.4994 0001603 102.7475 257.3705 15.30164352 74392
STARLINK-32252          
1 60442U 24144T   25336.24091963  .00000449  00000+0  27292-4 0  9996
2 60442  53.1621 309.4611 0001359  86.8209 273.2948 15.30194371 74438
STARLINK-32237          
1 60443U 24144U   25336.24408529  .00000125  00000+0  16347-4 0  9997
2 60443  53.1618 309.4829 0001232 100.6884 259.4255 15.30197193 74397
STARLINK-32249          
1 60444U 24144V   25336.23458476  .00001329  00000+0  56984-4 0  9991
2 60444  53.1614 309.4229 0001234 101.3568 258.7572 15.30199157 74438
STARLINK-32228          
1 60445U 24144W   25336.17243979  .00000503  00000+0  29102-4 0  9990
2 60445  53.1606 309.7442 0001563  96.7142 263.4037 15.30195635 74425
STARLINK-32247          
1 60446U 24144X   25336.17250277  .00000621  00000+0  33102-4 0  9996
2 60446  53.1613 299.6635 0001405  84.3134 275.8027 15.30194602 74568
STARLINK-32101          
1 60447U 24144Y   25336.24303086  .00000382  00000+0  25035-4 0  9992
2 60447  53.1611 309.4739 0001239 101.8323 258.2817 15.30192511 74392
STARLINK-31844          
1 60583U 24150A   25336.16162413 -.00005433  00000+0 -17131-3 0  9999
2 60583  53.1621  39.7344 0001158  84.1295 275.9838 15.30223135 73115
STARLINK-32204          
1 60584U 24150B   25335.46955171  .00001244  00000+0  54144-4 0  9993
2 60584  53.1608  43.2349 0001160  79.0992 281.0140 15.30192842 73008
