[{"OBJECT_NAME":"STARLINK-32233","OBJECT_ID":"2024-144K","EPOCH":"2025-12-02T04:46:17.980608","MEAN_MOTION":15.30195838,"ECCENTRICITY":0.00015358,"INCLINATION":53.1621,"RA_OF_ASC_NODE":309.9113,"ARG_OF_PERICENTER":90.0354,"MEAN_ANOMALY":270.0823,"EPHEMERIS_TYPE":0,"CLASSIFICATION_TYPE":"U","NORAD_CAT_ID":60434,"ELEMENT_SET_NO":999,"REV_AT_EPOCH":7438,"BSTAR":3.2030017e-5,"MEAN_MOTION_DOT":5.89e-6,"MEAN_MOTION_DDOT":0},{"OBJECT_NAME":"STARLINK-32222","OBJECT_ID":"2024-144L","EPOCH":"2025-12-02T04:50:51.547200","MEAN_MOTION":15.3020597,"ECCENTRICITY":0.00013565,"INCLINATION":53.1633,"RA_OF_ASC_NODE":309.933,"ARG_OF_PERICENTER":92.1571,"MEAN_ANOMALY":267.9585,"EPHEMERIS_TYPE":0,"CLASSIFICATION_TYPE":"U","NORAD_CAT_ID":60435,"ELEMENT_SET_NO":999,"REV_AT_EPOCH":7438,"BSTAR":1.0362547e-5,"MEAN_MOTION_DOT":-5.2e-7,"MEAN_MOTION_DDOT":0},{"OBJECT_NAME":"STARLINK-32229","OBJECT_ID":"2024-144M","EPOCH":"2025-12-02T04:41:44.803680","MEAN_MOTION":15.30203334,"ECCENTRICITY":0.00017992,"INCLINATION":53.1613,"RA_OF_ASC_NODE":309.8935,"ARG_OF_PERICENTER":87.5873,"MEAN_ANOMALY":272.5334,"EPHEMERIS_TYPE":0,"CLASSIFICATION_TYPE":"U","NORAD_CAT_ID":60436,"ELEMENT_SET_NO":999,"REV_AT_EPOCH":7438,"BSTAR":-7.2067092e-5,"MEAN_MOTION_DOT":-2.494e-5,"MEAN_MOTION_DDOT":0},{"OBJECT_NAME":"STARLINK-32241","OBJECT_ID":"2024-144N","EPOCH":"2025-12-02T04:40:13.006272","MEAN_MOTION":15.30180748,"ECCENTRICITY":0.00014597,"INCLINATION":53.1622,"RA_OF_ASC_NODE":309.8875,"ARG_OF_PERICENTER":95.4549,"MEAN_ANOMALY":264.6618,"EPHEMERIS_TYPE":0,"CLASSIFICATION_TYPE":"U","NORAD_CAT_ID":60437,"ELEMENT_SET_NO":999,"REV_AT_EPOCH":7438,"BSTAR":0.00011057893,"MEAN_MOTION_DOT":2.915e-5,"MEAN_MOTION_DDOT":0},{"OBJECT_NAME":"STARLINK-32240","OBJECT_ID":"2024-144P","EPOCH":"2025-12-02T06:11:14.700192","MEAN_MOTION":15.30192812,"ECCENTRICITY":0.0001442,"INCLINATION":53.1615,"RA_OF_ASC_NODE":309.5721,"ARG_OF_PERICENTER":85.7929,"MEAN_ANOMALY":274.3236,"EPHEMERIS_TYPE":0,"CLASSIFICATION_TYPE":"U","NORAD_CAT_ID":60438,"ELEMENT_SET_NO":999,"REV_AT_EPOCH":7443,"BSTAR":6.0434821e-5,"MEAN_MOTION_DOT":1.431e-5,"MEAN_MOTION_DDOT":0},{"OBJECT_NAME":"STARLINK-32231","OBJECT_ID":"2024-144Q","EPOCH":"2025-12-02T06:00:36.158400","MEAN_MOTION":15.30192264,"ECCENTRICITY":0.00013106,"INCLINATION":53.162,"RA_OF_ASC_NODE":309.521,"ARG_OF_PERICENTER":94.0692,"MEAN_ANOMALY":266.0458,"EPHEMERIS_TYPE":0,"CLASSIFICATION_TYPE":"U","NORAD_CAT_ID":60439,"ELEMENT_SET_NO":999,"REV_AT_EPOCH":7349,"BSTAR":1.6331221e-5,"MEAN_MOTION_DOT":1.24e-6,"MEAN_MOTION_DDOT":0},{"OBJECT_NAME":"STARLINK-32195","OBJECT_ID":"2024-144R","EPOCH":"2025-12-02T06:06:40.779360","MEAN_MOTION":15.30184538,"ECCENTRICITY":0.00016176,"INCLINATION":53.1611,"RA_OF_ASC_NODE":309.5501,"ARG_OF_PERICENTER":95.3757,"MEAN_ANOMALY":264.7428,"EPHEMERIS_TYPE":0,"CLASSIFICATION_TYPE":"U","NORAD_CAT_ID":60440,"ELEMENT_SET_NO":999,"REV_AT_EPOCH":7439,"BSTAR":5.9989897e-5,"MEAN_MOTION_DOT":1.417e-5,"MEAN_MOTION_DDOT":0},{"OBJECT_NAME":"STARLINK-32177","OBJECT_ID":"2024-144S","EPOCH":"2025-12-02T05:56:03.635520","MEAN_MOTION":15.30164352,"ECCENTRICITY":0.00016031,"INCLINATION":53.1613,"RA_OF_ASC_NODE":309.4994,"ARG_OF_PERICENTER":102.7475,"MEAN_ANOMALY":257.3705,"EPHEMERIS_TYPE":0,"CLASSIFICATION_TYPE":"U","NORAD_CAT_ID":60441,"ELEMENT_SET_NO":999,"REV_AT_EPOCH":7439,"BSTAR":0.00024276546,"MEAN_MOTION_DOT":6.83e-5,"MEAN_MOTION_DDOT":0},{"OBJECT_NAME":"STARLINK-32252","OBJECT_ID":"2024-144T","EPOCH":"2025-12-02T05:46:55.456032","MEAN_MOTION":15.30194371,"ECCENTRICITY":0.00013597,"INCLINATION":53.1621,"RA_OF_ASC_NODE":309.4611,"ARG_OF_PERICENTER":86.8209,"MEAN_ANOMALY":273.2948,"EPHEMERIS_TYPE":0,"CLASSIFICATION_TYPE":"U","NORAD_CAT_ID":60442,"ELEMENT_SET_NO":999,"REV_AT_EPOCH":7443,"BSTAR":2.7292088e-5,"MEAN_MOTION_DOT":4.49e-6,"MEAN_MOTION_DDOT":0},{"OBJECT_NAME":"STARLINK-32237","OBJECT_ID":"2024-144U","EPOCH":"2025-12-02T05:51:28.969056","MEAN_MOTION":15.30197193,"ECCENTRICITY":0.00012323,"INCLINATION":53.1618,"RA_OF_ASC_NODE":309.4829,"ARG_OF_PERICENTER":100.6884,"MEAN_ANOMALY":259.4255,"EPHEMERIS_TYPE":0,"CLASSIFICATION_TYPE":"U","NORAD_CAT_ID":60443,"ELEMENT_SET_NO":999,"REV_AT_EPOCH":7439,"BSTAR":1.6346813e-5,"MEAN_MOTION_DOT":1.25e-6,"MEAN_MOTION_DDOT":0},{"OBJECT_NAME":"STARLINK-32249","OBJECT_ID":"2024-144V","EPOCH":"2025-12-02T05:37:48.123264","MEAN_MOTION":15.30199157,"ECCENTRICITY":0.00012341,"INCLINATION":53.1614,"RA_OF_ASC_NODE":309.4229,"ARG_OF_PERICENTER":101.3568,"MEAN_ANOMALY":258.7572,"EPHEMERIS_TYPE":0,"CLASSIFICATION_TYPE":"U","NORAD_CAT_ID":60444,"ELEMENT_SET_NO":999,"REV_AT_EPOCH":7443,"BSTAR":5.6984192e-5,"MEAN_MOTION_DOT":1.329e-5,"MEAN_MOTION_DDOT":0},{"OBJECT_NAME":"STARLINK-32228","OBJECT_ID":"2024-144W","EPOCH":"2025-12-02T04:08:18.797856","MEAN_MOTION":15.30195635,"ECCENTRICITY":0.00015639,"INCLINATION":53.1606,"RA_OF_ASC_NODE":309.7442,"ARG_OF_PERICENTER":96.7142,"MEAN_ANOMALY":263.4037,"EPHEMERIS_TYPE":0,"CLASSIFICATION_TYPE":"U","NORAD_CAT_ID":60445,"ELEMENT_SET_NO":999,"REV_AT_EPOCH":7442,"BSTAR":2.9101631e-5,"MEAN_MOTION_DOT":5.03e-6,"MEAN_MOTION_DDOT":0},{"OBJECT_NAME":"STARLINK-32247","OBJECT_ID":"2024-144X","EPOCH":"2025-12-02T04:08:24.239328","MEAN_MOTION":15.30194602,"ECCENTRICITY":0.00014056,"INCLINATION":53.1613,"RA_OF_ASC_NODE":299.6635,"ARG_OF_PERICENTER":84.3134,"MEAN_ANOMALY":275.8027,"EPHEMERIS_TYPE":0,"CLASSIFICATION_TYPE":"U","NORAD_CAT_ID":60446,"ELEMENT_SET_NO":999,"REV_AT_EPOCH":7456,"BSTAR":3.3102335e-5,"MEAN_MOTION_DOT":6.21e-6,"MEAN_MOTION_DDOT":0},{"OBJECT_NAME":"STARLINK-32101","OBJECT_ID":"2024-144Y","EPOCH":"2025-12-02T05:49:57.866304","MEAN_MOTION":15.30192511,"ECCENTRICITY":0.00012399,"INCLINATION":53.1611,"RA_OF_ASC_NODE":309.4739,"ARG_OF_PERICENTER":101.8323,"MEAN_ANOMALY":258.2817,"EPHEMERIS_TYPE":0,"CLASSIFICATION_TYPE":"U","NORAD_CAT_ID":60447,"ELEMENT_SET_NO":999,"REV_AT_EPOCH":7439,"BSTAR":2.5035233e-5,"MEAN_MOTION_DOT":3.82e-6,"MEAN_MOTION_DDOT":0},{"OBJECT_NAME":"STARLINK-31844","OBJECT_ID":"2024-150A","EPOCH":"2025-12-02T03:52:44.324832","MEAN_MOTION":15.30223135,"ECCENTRICITY":0.0001158,"INCLINATION":53.1621,"RA_OF_ASC_NODE":39.7344,"ARG_OF_PERICENTER":84.1295,"MEAN_ANOMALY":275.9838,"EPHEMERIS_TYPE":0,"CLASSIFICATION_TYPE":"U","NORAD_CAT_ID":60583,"ELEMENT_SET_NO":999,"REV_AT_EPOCH":7311,"BSTAR":-0.00017130732,"MEAN_MOTION_DOT":-5.433e-5,"MEAN_MOTION_DDOT":0},{"OBJECT_NAME":"STARLINK-32204","OBJECT_ID":"2024-150B","EPOCH":"2025-12-01T11:16:09.267744","MEAN_MOTION":15.30192842,"ECCENTRICITY":0.00011609,"INCLINATION":53.1608,"RA_OF_ASC_NODE":43.2349,"ARG_OF_PERICENTER":79.0992,"MEAN_ANOMALY":281.014,"EPHEMERIS_TYPE":0,"CLASSIFICATION_TYPE":"U","NORAD_CAT_ID":60584,"ELEMENT_SET_NO":999,"REV_AT_EPOCH":7300,"BSTAR":5.4143819e-5,"MEAN_MOTION_DOT":1.244e-5,"MEAN_MOTION_DDOT":0}]
